{"type": "FeatureCollection", "features": [ {"type": "Feature", "properties": {"norad_id": 66546, "name": "SHIJIAN-30B", "group": "last-30-days", "lat": 46.29777193827162, "lon": 109.23962131191095, "alt_km": 516.5358124139111, "timestamp": "2025-12-10T04:57:28.366164+00:00", "meta": {"OBJECT_NAME": "SHIJIAN-30B", "OBJECT_ID": "2025-266B", "EPOCH": "2025-12-09T14:13:10.595136", "MEAN_MOTION": 15.15642408, "ECCENTRICITY": 0.0010428, "INCLINATION": 51.7973, "RA_OF_ASC_NODE": 347.6109, "ARG_OF_PERICENTER": 348.0528, "MEAN_ANOMALY": 12.02, "EPHEMERIS_TYPE": 0, "CLASSIFICATION_TYPE": "U", "NORAD_CAT_ID": 66546, "ELEMENT_SET_NO": 999, "REV_AT_EPOCH": 310, "BSTAR": 0.00088193, "MEAN_MOTION_DOT": 0.00016731, "MEAN_MOTION_DDOT": 0}, "tle": {"line1": "1 66546U 25266B   25343.59248374  .00016731  00000+0  88193-3 0  9996", "line2": "2 66546  51.7973 347.6109 0010428 348.0528  12.0200 15.15642408  3101"}}, "geometry": {"type": "Point", "coordinates": [109.23962131191095, 46.29777193827162]}}, {"type": "Feature", "properties": {"norad_id": 66547, "name": "SHIJIAN-30C", "group": "last-30-days", "lat": 47.83122239272604, "lon": 104.34514684500638, "alt_km": 517.0863905063134, "timestamp": "2025-12-10T04:57:28.366176+00:00", "meta": {"OBJECT_NAME": "SHIJIAN-30C", "OBJECT_ID": "2025-266C", "EPOCH": "2025-12-09T18:58:59.395872", "MEAN_MOTION": 15.156555, "ECCENTRICITY": 0.0011349, "INCLINATION": 51.7982, "RA_OF_ASC_NODE": 346.6898, "ARG_OF_PERICENTER": 341.1019, "MEAN_ANOMALY": 18.9535, "EPHEMERIS_TYPE": 0, "CLASSIFICATION_TYPE": "U", "NORAD_CAT_ID": 66547, "ELEMENT_SET_NO": 999, "REV_AT_EPOCH": 313, "BSTAR": 0.00082868, "MEAN_MOTION_DOT": 0.00015709, "MEAN_MOTION_DDOT": 0}, "tle": {"line1": "1 66547U 25266C   25343.79096523  .00015709  00000+0  82868-3 0  9993", "line2": "2 66547  51.7982 346.6898 0011349 341.1019  18.9535 15.15655500  3134"}}, "geometry": {"type": "Point", "coordinates": [104.34514684500638, 47.83122239272604]}}, {"type": "Feature", "properties": {"norad_id": 66548, "name": "CZ-2C R/B", "group": "last-30-days", "lat": 44.218519114501, "lon": 113.94845437696378, "alt_km": 429.69634618415694, "timestamp": "2025-12-10T04:57:28.366187+00:00", "meta": {"OBJECT_NAME": "CZ-2C R/B", "OBJECT_ID": "2025-266D", "EPOCH": "2025-12-09T17:28:15.072672", "MEAN_MOTION": 15.30079129, "ECCENTRICITY": 0.0084094, "INCLINATION": 52.0566, "RA_OF_ASC_NODE": 345.6269, "ARG_OF_PERICENTER": 162.7159, "MEAN_ANOMALY": 197.6721, "EPHEMERIS_TYPE": 0, "CLASSIFICATION_TYPE": "U", "NORAD_CAT_ID": 66548, "ELEMENT_SET_NO": 999, "REV_AT_EPOCH": 315, "BSTAR": 0.00045839, "MEAN_MOTION_DOT": 0.00014711, "MEAN_MOTION_DDOT": 0}, "tle": {"line1": "1 66548U 25266D   25343.72795223  .00014711  00000+0  45839-3 0  9999", "line2": "2 66548  52.0566 345.6269 0084094 162.7159 197.6721 15.30079129  3155"}}, "geometry": {"type": "Point", "coordinates": [113.94845437696378, 44.218519114501]}}, {"type": "Feature", "properties": {"norad_id": 66549, "name": "SHIJIAN-28", "group": "last-30-days", "lat": -3.6825863146480504, "lon": -104.48751706844294, "alt_km": 31103.97450627616, "timestamp": "2025-12-10T04:57:28.366199+00:00", "meta": {"OBJECT_NAME": "SHIJIAN-28", "OBJECT_ID": "2025-277A", "EPOCH": "2025-12-01T04:36:42.476256", "MEAN_MOTION": 2.08595383, "ECCENTRICITY": 0.6308324, "INCLINATION": 11.5392, "RA_OF_ASC_NODE": 275.706, "ARG_OF_PERICENTER": 179.9335, "MEAN_ANOMALY": 180.3971, "EPHEMERIS_TYPE": 0, "CLASSIFICATION_TYPE": "U", "NORAD_CAT_ID": 66549, "ELEMENT_SET_NO": 999, "REV_AT_EPOCH": 5, "BSTAR": 0, "MEAN_MOTION_DOT": -3.3e-07, "MEAN_MOTION_DDOT": 0}, "tle": {"line1": "1 66549U 25277A   25335.19215829 -.00000033  00000+0  00000+0 0  9993", "line2": "2 66549  11.5392 275.7060 6308324 179.9335 180.3971  2.08595383    50"}}, "geometry": {"type": "Point", "coordinates": [-104.48751706844294, -3.6825863146480504]}}, {"type": "Feature", "properties": {"norad_id": 66550, "name": "CZ-7A R/B", "group": "last-30-days", "lat": 10.691942441224255, "lon": 43.95356067601459, "alt_km": 1496.9328106691992, "timestamp": "2025-12-10T04:57:28.366218+00:00", "meta": {"OBJECT_NAME": "CZ-7A R/B", "OBJECT_ID": "2025-277B", "EPOCH": "2025-12-09T05:27:24.418944", "MEAN_MOTION": 2.57975656, "ECCENTRICITY": 0.7104172, "INCLINATION": 14.4001, "RA_OF_ASC_NODE": 271.6446, "ARG_OF_PERICENTER": 185.6905, "MEAN_ANOMALY": 156.7335, "EPHEMERIS_TYPE": 0, "CLASSIFICATION_TYPE": "U", "NORAD_CAT_ID": 66550, "ELEMENT_SET_NO": 999, "REV_AT_EPOCH": 25, "BSTAR": 0.0029501, "MEAN_MOTION_DOT": 0.01805656, "MEAN_MOTION_DDOT": 5.5061e-07}, "tle": {"line1": "1 66550U 25277B   25343.22736596  .01805656  55061-6  29501-2 0  9995", "line2": "2 66550  14.4001 271.6446 7104172 185.6905 156.7335  2.57975656   259"}}, "geometry": {"type": "Point", "coordinates": [43.95356067601459, 10.691942441224255]}}, {"type": "Feature", "properties": {"norad_id": 66551, "name": "UNKNOWN", "group": "last-30-days", "lat": 42.68901158991975, "lon": -24.293618582604978, "alt_km": 310.7643662998162, "timestamp": "2025-12-10T04:57:28.366229+00:00", "meta": {"OBJECT_NAME": "UNKNOWN", "OBJECT_ID": "2025-271AE", "EPOCH": "2025-12-02T16:00:03.000096", "MEAN_MOTION": 15.87051116, "ECCENTRICITY": 7.17e-05, "INCLINATION": 53.1571, "RA_OF_ASC_NODE": 236.7807, "ARG_OF_PERICENTER": 110.7411, "MEAN_ANOMALY": 313.9012, "EPHEMERIS_TYPE": 0, "CLASSIFICATION_TYPE": "U", "NORAD_CAT_ID": 66551, "ELEMENT_SET_NO": 999, "REV_AT_EPOCH": 262, "BSTAR": -0.0074303, "MEAN_MOTION_DOT": -0.01709685, "MEAN_MOTION_DDOT": 0}, "tle": {"line1": "1 66551U 25271AE  25336.66670139 -.01709685  00000+0 -74303-2 0  9993", "line2": "2 66551  53.1571 236.7807 0000717 110.7411 313.9012 15.87051116  2624"}}, "geometry": {"type": "Point", "coordinates": [-24.293618582604978, 42.68901158991975]}}, {"type": "Feature", "properties": {"norad_id": 66554, "name": "GLOBAL-33", "group": "last-30-days", "lat": 37.047571983730286, "lon": -165.3506001211364, "alt_km": 464.67022972216, "timestamp": "2025-12-10T04:57:28.366251+00:00", "meta": {"OBJECT_NAME": "GLOBAL-33", "OBJECT_ID": "2025-267A", "EPOCH": "2025-12-09T14:22:09.826176", "MEAN_MOTION": 15.31535046, "ECCENTRICITY": 0.00046403, "INCLINATION": 42.0203, "RA_OF_ASC_NODE": 75.1254, "ARG_OF_PERICENTER": 30.4756, "MEAN_ANOMALY": 329.6351, "EPHEMERIS_TYPE": 0, "CLASSIFICATION_TYPE": "U", "NORAD_CAT_ID": 66554, "ELEMENT_SET_NO": 999, "REV_AT_EPOCH": 292, "BSTAR": 0.00060900929, "MEAN_MOTION_DOT": 0.00018748, "MEAN_MOTION_DDOT": 0}, "tle": {"line1": "1 66554U 25267A   25343.59872484  .00018748  00000+0  60901-3 0  9998", "line2": "2 66554  42.0203  75.1254 0004640  30.4756 329.6351 15.31535046  2927"}}, "geometry": {"type": "Point", "coordinates": [-165.3506001211364, 37.047571983730286]}}, {"type": "Feature", "properties": {"norad_id": 66555, "name": "ELECTRON KICK STAGE R/B", "group": "last-30-days", "lat": 6.068265513515893, "lon": -115.29689906271128, "alt_km": 470.3218383964695, "timestamp": "2025-12-10T04:57:28.366265+00:00", "meta": {"OBJECT_NAME": "ELECTRON KICK STAGE R/B", "OBJECT_ID": "2025-267B", "EPOCH": "2025-12-09T14:08:24.415872", "MEAN_MOTION": 15.32568899, "ECCENTRICITY": 0.00067718, "INCLINATION": 42.0198, "RA_OF_ASC_NODE": 75.0548, "ARG_OF_PERICENTER": 28.3952, "MEAN_ANOMALY": 331.7253, "EPHEMERIS_TYPE": 0, "CLASSIFICATION_TYPE": "U", "NORAD_CAT_ID": 66555, "ELEMENT_SET_NO": 999, "REV_AT_EPOCH": 292, "BSTAR": 0.0010090003, "MEAN_MOTION_DOT": 0.00032333, "MEAN_MOTION_DDOT": 0}, "tle": {"line1": "1 66555U 25267B   25343.58917148  .00032333  00000+0  10090-2 0  9994", "line2": "2 66555  42.0198  75.0548 0006771  28.3952 331.7253 15.32568899  2925"}}, "geometry": {"type": "Point", "coordinates": [-115.29689906271128, 6.068265513515893]}}, {"type": "Feature", "properties": {"norad_id": 66557, "name": "STARLINK-35699", "group": "last-30-days", "lat": -12.621561982446295, "lon": 122.11014876392245, "alt_km": 415.7585584487297, "timestamp": "2025-12-10T04:57:28.366278+00:00", "meta": {"OBJECT_NAME": "STARLINK-35699", "OBJECT_ID": "2025-268A", "EPOCH": "2025-12-09T20:00:01.999008", "MEAN_MOTION": 15.50564788, "ECCENTRICITY": 0.0001042, "INCLINATION": 43.0006, "RA_OF_ASC_NODE": 138.1976, "ARG_OF_PERICENTER": 286.6013, "MEAN_ANOMALY": 128.9134, "EPHEMERIS_TYPE": 0, "CLASSIFICATION_TYPE": "U", "NORAD_CAT_ID": 66557, "ELEMENT_SET_NO": 999, "REV_AT_EPOCH": 420, "BSTAR": 0.0010738, "MEAN_MOTION_DOT": 0.0006313, "MEAN_MOTION_DDOT": 0}, "tle": {"line1": "1 66557U 25268A   25343.83335647  .00063130  00000+0  10738-2 0  9991", "line2": "2 66557  43.0006 138.1976 0001042 286.6013 128.9134 15.50564788  4205"}}, "geometry": {"type": "Point", "coordinates": [122.11014876392245, -12.621561982446295]}}, {"type": "Feature", "properties": {"norad_id": 66558, "name": "STARLINK-35695", "group": "last-30-days", "lat": -11.364600015140631, "lon": 123.55375117469671, "alt_km": 415.6114851652792, "timestamp": "2025-12-10T04:57:28.366289+00:00", "meta": {"OBJECT_NAME": "STARLINK-35695", "OBJECT_ID": "2025-268B", "EPOCH": "2025-12-09T20:00:01.999008", "MEAN_MOTION": 15.50554791, "ECCENTRICITY": 0.0001149, "INCLINATION": 43.0006, "RA_OF_ASC_NODE": 138.1932, "ARG_OF_PERICENTER": 287.5054, "MEAN_ANOMALY": 129.9135, "EPHEMERIS_TYPE": 0, "CLASSIFICATION_TYPE": "U", "NORAD_CAT_ID": 66558, "ELEMENT_SET_NO": 999, "REV_AT_EPOCH": 420, "BSTAR": 0.0011599, "MEAN_MOTION_DOT": 0.00068238, "MEAN_MOTION_DDOT": 0}, "tle": {"line1": "1 66558U 25268B   25343.83335647  .00068238  00000+0  11599-2 0  9992", "line2": "2 66558  43.0006 138.1932 0001149 287.5054 129.9135 15.50554791  4206"}}, "geometry": {"type": "Point", "coordinates": [123.55375117469671, -11.364600015140631]}}]}